[{"OBJECT_NAME":"STARLINK-35065","OBJECT_ID":"2025-194H","EPOCH":"2026-03-09T13:12:01.205280","MEAN_MOTION":15.05652006,"ECCENTRICITY":0.00021494,"INCLINATION":97.6028,"RA_OF_ASC_NODE":284.2088,"ARG_OF_PERICENTER":69.3419,"MEAN_ANOMALY":290.8038,"EPHEMERIS_TYPE":0,"CLASSIFICATION_TYPE":"U","NORAD_CAT_ID":65441,"ELEMENT_SET_NO":999,"REV_AT_EPOCH":2962,"BSTAR":0.00045294617,"MEAN_MOTION_DOT":6.481e-5,"MEAN_MOTION_DDOT":0},{"OBJECT_NAME":"CZ-6A DEB","OBJECT_ID":"2022-151MM","EPOCH":"2026-03-09T16:36:35.308512","MEAN_MOTION":15.08432741,"ECCENTRICITY":0.0037582,"INCLINATION":98.6255,"RA_OF_ASC_NODE":147.7512,"ARG_OF_PERICENTER":182.2642,"MEAN_ANOMALY":177.8419,"EPHEMERIS_TYPE":0,"CLASSIFICATION_TYPE":"U","NORAD_CAT_ID":54585,"ELEMENT_SET_NO":999,"REV_AT_EPOCH":10505,"BSTAR":0.0062350664,"MEAN_MOTION_DOT":0.00099853,"MEAN_MOTION_DDOT":0}]
